{"type": "FeatureCollection", "features": [ {"type": "Feature", "properties": {"norad_id": 44542, "name": "BEIDOU-3 M24 (C46)", "group": "gnss", "lat": 30.25823660875939, "lon": -146.71061864346146, "alt_km": 21498.38004497247, "timestamp": "2025-12-25T20:42:38.933292+00:00", "meta": {"OBJECT_NAME": "BEIDOU-3 M24 (C46)", "OBJECT_ID": "2019-061A", "EPOCH": "2025-12-24T17:34:06.027744", "MEAN_MOTION": 1.86229347, "ECCENTRICITY": 0.00095746, "INCLINATION": 54.4007, "RA_OF_ASC_NODE": 188.6113, "ARG_OF_PERICENTER": 26.2213, "MEAN_ANOMALY": 333.8628, "EPHEMERIS_TYPE": 0, "CLASSIFICATION_TYPE": "U", "NORAD_CAT_ID": 44542, "ELEMENT_SET_NO": 999, "REV_AT_EPOCH": 4254, "BSTAR": 0, "MEAN_MOTION_DOT": 1.06e-06, "MEAN_MOTION_DDOT": 0}, "tle": {"line1": "1 44542U 19061A   25358.73201421  .00000106  00000+0  00000+0 0  9994", "line2": "2 44542  54.4007 188.6113 0009574  26.2213 333.8628  1.86229347 42540"}}, "geometry": {"type": "Point", "coordinates": [-146.71061864346146, 30.25823660875939]}}, {"type": "Feature", "properties": {"norad_id": 44543, "name": "BEIDOU-3 M23 (C45)", "group": "gnss", "lat": -37.9031234112501, "lon": 154.6273189546161, "alt_km": 21528.61257668522, "timestamp": "2025-12-25T20:42:38.933306+00:00", "meta": {"OBJECT_NAME": "BEIDOU-3 M23 (C45)", "OBJECT_ID": "2019-061B", "EPOCH": "2025-12-25T03:38:38.812704", "MEAN_MOTION": 1.86227443, "ECCENTRICITY": 0.0006014, "INCLINATION": 54.3997, "RA_OF_ASC_NODE": 188.5655, "ARG_OF_PERICENTER": 25.8754, "MEAN_ANOMALY": 168.3625, "EPHEMERIS_TYPE": 0, "CLASSIFICATION_TYPE": "U", "NORAD_CAT_ID": 44543, "ELEMENT_SET_NO": 999, "REV_AT_EPOCH": 4255, "BSTAR": 0, "MEAN_MOTION_DOT": 1.1e-06, "MEAN_MOTION_DDOT": 0}, "tle": {"line1": "1 44543U 19061B   25359.15183811  .00000110  00000+0  00000+0 0  9999", "line2": "2 44543  54.3997 188.5655 0006014  25.8754 168.3625  1.86227443 42553"}}, "geometry": {"type": "Point", "coordinates": [154.6273189546161, -37.9031234112501]}}, {"type": "Feature", "properties": {"norad_id": 44624, "name": "EUTELSAT 5 WEST B (EGNOS/PRN 121)", "group": "gnss", "lat": 0.0621149611807641, "lon": 40.30175144095063, "alt_km": 35794.31209256079, "timestamp": "2025-12-25T20:42:38.933317+00:00", "meta": {"OBJECT_NAME": "EUTELSAT 5 WEST B (EGNOS/PRN 121)", "OBJECT_ID": "2019-067A", "EPOCH": "2025-12-25T06:11:32.851104", "MEAN_MOTION": 1.0027129, "ECCENTRICITY": 0.00031685, "INCLINATION": 0.063, "RA_OF_ASC_NODE": 344.5526, "ARG_OF_PERICENTER": 288.486, "MEAN_ANOMALY": 268.8705, "EPHEMERIS_TYPE": 0, "CLASSIFICATION_TYPE": "U", "NORAD_CAT_ID": 44624, "ELEMENT_SET_NO": 999, "REV_AT_EPOCH": 2269, "BSTAR": 0, "MEAN_MOTION_DOT": -2.1e-07, "MEAN_MOTION_DDOT": 0}, "tle": {"line1": "1 44624U 19067A   25359.25801911 -.00000021  00000+0  00000+0 0  9996", "line2": "2 44624   0.0630 344.5526 0003168 288.4860 268.8705  1.00271290 22691"}}, "geometry": {"type": "Point", "coordinates": [40.30175144095063, 0.0621149611807641]}}, {"type": "Feature", "properties": {"norad_id": 44793, "name": "BEIDOU-3 M22 (C44)", "group": "gnss", "lat": 27.195965835245733, "lon": 104.08012020924397, "alt_km": 21533.5056796023, "timestamp": "2025-12-25T20:42:38.933329+00:00", "meta": {"OBJECT_NAME": "BEIDOU-3 M22 (C44)", "OBJECT_ID": "2019-078A", "EPOCH": "2025-12-22T23:04:03.320256", "MEAN_MOTION": 1.86232206, "ECCENTRICITY": 0.00060944, "INCLINATION": 54.0989, "RA_OF_ASC_NODE": 306.0279, "ARG_OF_PERICENTER": 24.0205, "MEAN_ANOMALY": 336.0117, "EPHEMERIS_TYPE": 0, "CLASSIFICATION_TYPE": "U", "NORAD_CAT_ID": 44793, "ELEMENT_SET_NO": 999, "REV_AT_EPOCH": 4136, "BSTAR": 0, "MEAN_MOTION_DOT": -5.4e-07, "MEAN_MOTION_DDOT": 0}, "tle": {"line1": "1 44793U 19078A   25356.96114954 -.00000054  00000+0  00000+0 0  9990", "line2": "2 44793  54.0989 306.0279 0006094  24.0205 336.0117  1.86232206 41368"}}, "geometry": {"type": "Point", "coordinates": [104.08012020924397, 27.195965835245733]}}, {"type": "Feature", "properties": {"norad_id": 44794, "name": "BEIDOU-3 M21 (C43)", "group": "gnss", "lat": 40.34518059197142, "lon": -16.151680189134957, "alt_km": 21514.33677633935, "timestamp": "2025-12-25T20:42:38.933354+00:00", "meta": {"OBJECT_NAME": "BEIDOU-3 M21 (C43)", "OBJECT_ID": "2019-078B", "EPOCH": "2025-12-24T17:02:19.367232", "MEAN_MOTION": 1.86227908, "ECCENTRICITY": 0.00042825, "INCLINATION": 54.0707, "RA_OF_ASC_NODE": 305.9315, "ARG_OF_PERICENTER": 12.8076, "MEAN_ANOMALY": 347.2122, "EPHEMERIS_TYPE": 0, "CLASSIFICATION_TYPE": "U", "NORAD_CAT_ID": 44794, "ELEMENT_SET_NO": 999, "REV_AT_EPOCH": 4140, "BSTAR": 0, "MEAN_MOTION_DOT": -5.2e-07, "MEAN_MOTION_DDOT": 0}, "tle": {"line1": "1 44794U 19078B   25358.70994638 -.00000052  00000+0  00000+0 0  9998", "line2": "2 44794  54.0707 305.9315 0004282  12.8076 347.2122  1.86227908 41402"}}, "geometry": {"type": "Point", "coordinates": [-16.151680189134957, 40.34518059197142]}}, {"type": "Feature", "properties": {"norad_id": 44850, "name": "COSMOS 2544 (759)", "group": "gnss", "lat": -6.216036782444186, "lon": 76.68437456311615, "alt_km": 19139.335962935907, "timestamp": "2025-12-25T20:42:38.933366+00:00", "meta": {"OBJECT_NAME": "COSMOS 2544 (759)", "OBJECT_ID": "2019-088A", "EPOCH": "2025-12-23T01:21:04.162752", "MEAN_MOTION": 2.13102153, "ECCENTRICITY": 0.0014323, "INCLINATION": 65.465, "RA_OF_ASC_NODE": 79.6136, "ARG_OF_PERICENTER": 250.3939, "MEAN_ANOMALY": 109.4967, "EPHEMERIS_TYPE": 0, "CLASSIFICATION_TYPE": "U", "NORAD_CAT_ID": 44850, "ELEMENT_SET_NO": 999, "REV_AT_EPOCH": 4696, "BSTAR": 0, "MEAN_MOTION_DOT": 1e-08, "MEAN_MOTION_DDOT": 0}, "tle": {"line1": "1 44850U 19088A   25357.05629818  .00000001  00000+0  00000+0 0  9997", "line2": "2 44850  65.4650  79.6136 0014323 250.3939 109.4967  2.13102153 46964"}}, "geometry": {"type": "Point", "coordinates": [76.68437456311615, -6.216036782444186]}}, {"type": "Feature", "properties": {"norad_id": 44864, "name": "BEIDOU-3 M19 (C41)", "group": "gnss", "lat": -50.947938460131105, "lon": -56.535076068168436, "alt_km": 21492.31816113755, "timestamp": "2025-12-25T20:42:38.933377+00:00", "meta": {"OBJECT_NAME": "BEIDOU-3 M19 (C41)", "OBJECT_ID": "2019-090A", "EPOCH": "2025-12-24T13:05:33.212256", "MEAN_MOTION": 1.86231537, "ECCENTRICITY": 0.00184016, "INCLINATION": 56.4026, "RA_OF_ASC_NODE": 68.5704, "ARG_OF_PERICENTER": 285.2046, "MEAN_ANOMALY": 160.4424, "EPHEMERIS_TYPE": 0, "CLASSIFICATION_TYPE": "U", "NORAD_CAT_ID": 44864, "ELEMENT_SET_NO": 999, "REV_AT_EPOCH": 4098, "BSTAR": 0, "MEAN_MOTION_DOT": -2.5e-07, "MEAN_MOTION_DDOT": 0}, "tle": {"line1": "1 44864U 19090A   25358.54552329 -.00000025  00000+0  00000+0 0  9999", "line2": "2 44864  56.4026  68.5704 0018401 285.2046 160.4424  1.86231537 40980"}}, "geometry": {"type": "Point", "coordinates": [-56.535076068168436, -50.947938460131105]}}, {"type": "Feature", "properties": {"norad_id": 44865, "name": "BEIDOU-3 M20 (C42)", "group": "gnss", "lat": -17.700777472327765, "lon": 56.34486674761067, "alt_km": 21497.961829266584, "timestamp": "2025-12-25T20:42:38.933393+00:00", "meta": {"OBJECT_NAME": "BEIDOU-3 M20 (C42)", "OBJECT_ID": "2019-090B", "EPOCH": "2025-12-24T09:14:17.322144", "MEAN_MOTION": 1.86231611, "ECCENTRICITY": 0.00155264, "INCLINATION": 56.4041, "RA_OF_ASC_NODE": 68.61, "ARG_OF_PERICENTER": 297.3537, "MEAN_ANOMALY": 130.233, "EPHEMERIS_TYPE": 0, "CLASSIFICATION_TYPE": "U", "NORAD_CAT_ID": 44865, "ELEMENT_SET_NO": 999, "REV_AT_EPOCH": 4096, "BSTAR": 0, "MEAN_MOTION_DOT": -2.4e-07, "MEAN_MOTION_DDOT": 0}, "tle": {"line1": "1 44865U 19090B   25358.38492271 -.00000024  00000+0  00000+0 0  9990", "line2": "2 44865  56.4041  68.6100 0015526 297.3537 130.2330  1.86231611 40965"}}, "geometry": {"type": "Point", "coordinates": [56.34486674761067, -17.700777472327765]}}, {"type": "Feature", "properties": {"norad_id": 45344, "name": "BEIDOU-3 G2 (C60)", "group": "gnss", "lat": 2.507839550390127, "lon": 125.30137881915842, "alt_km": 35793.775960285304, "timestamp": "2025-12-25T20:42:38.933407+00:00", "meta": {"OBJECT_NAME": "BEIDOU-3 G2 (C60)", "OBJECT_ID": "2020-017A", "EPOCH": "2025-12-25T05:18:38.546208", "MEAN_MOTION": 1.00272266, "ECCENTRICITY": 0.00021063, "INCLINATION": 2.519, "RA_OF_ASC_NODE": 44.1259, "ARG_OF_PERICENTER": 237.0477, "MEAN_ANOMALY": 332.517, "EPHEMERIS_TYPE": 0, "CLASSIFICATION_TYPE": "U", "NORAD_CAT_ID": 45344, "ELEMENT_SET_NO": 999, "REV_AT_EPOCH": 2151, "BSTAR": 0, "MEAN_MOTION_DOT": -1.2e-06, "MEAN_MOTION_DDOT": 0}, "tle": {"line1": "1 45344U 20017A   25359.22127947 -.00000120  00000+0  00000+0 0  9990", "line2": "2 45344   2.5190  44.1259 0002106 237.0477 332.5170  1.00272266 21519"}}, "geometry": {"type": "Point", "coordinates": [125.30137881915842, 2.507839550390127]}}, {"type": "Feature", "properties": {"norad_id": 45358, "name": "COSMOS 2545 (760)", "group": "gnss", "lat": -20.521620339611694, "lon": 148.79669397017616, "alt_km": 19113.58221500334, "timestamp": "2025-12-25T20:42:38.933418+00:00", "meta": {"OBJECT_NAME": "COSMOS 2545 (760)", "OBJECT_ID": "2020-018A", "EPOCH": "2025-12-25T03:05:50.090208", "MEAN_MOTION": 2.13102661, "ECCENTRICITY": 0.00112965, "INCLINATION": 64.4622, "RA_OF_ASC_NODE": 318.5356, "ARG_OF_PERICENTER": 250.6844, "MEAN_ANOMALY": 109.1968, "EPHEMERIS_TYPE": 0, "CLASSIFICATION_TYPE": "U", "NORAD_CAT_ID": 45358, "ELEMENT_SET_NO": 999, "REV_AT_EPOCH": 4495, "BSTAR": 0, "MEAN_MOTION_DOT": -3.4e-07, "MEAN_MOTION_DDOT": 0}, "tle": {"line1": "1 45358U 20018A   25359.12905197 -.00000034  00000+0  00000+0 0  9990", "line2": "2 45358  64.4622 318.5356 0011296 250.6844 109.1968  2.13102661 44958"}}, "geometry": {"type": "Point", "coordinates": [148.79669397017616, -20.521620339611694]}}]}